start=new Date('2021-12-16T00:00:00.000Z').valueOf();
sats=[{"OBJECT_NAME":"STARLINK-2763","PERIOD":"95.592","NORAD_CAT_ID":"48670","MEAN_MOTION_DOT":"-0.00000915","INCLINATION":"53.0531","CLASSIFICATION_TYPE":"U","EPHEMERIS_TYPE":"0","REF_FRAME":"TEME","CENTER_NAME":"EARTH","FILE":"3241542","COUNTRY_CODE":"US","BSTAR":"-0.00004248300000","LAUNCH_DATE":"2021-05-26","EPOCH":"2021-12-15T20:58:24.271392","RCS_SIZE":"LARGE","OBJECT_TYPE":"PAYLOAD","GP_ID":"191800106","REV_AT_EPOCH":"3100","TLE_LINE2":"2 48670  53.0531 206.5600 0002424  76.3702 283.7556 15.06395129 31001","ELEMENT_SET_NO":"999","OBJECT_ID":"2021-044AJ","TLE_LINE1":"1 48670U 21044AJ  21349.87389203 -.00000915  00000-0 -42483-4 0  9997","MEAN_ANOMALY":"283.7556","MEAN_MOTION":"15.06395129","APOAPSIS":"548.907","PERIAPSIS":"545.550","TIME_SYSTEM":"UTC","RA_OF_ASC_NODE":"206.5600","ARG_OF_PERICENTER":"76.3702","MEAN_ELEMENT_THEORY":"SGP4","DECAY_DATE":null,"ECCENTRICITY":"0.00024240","MEAN_MOTION_DDOT":"0.0000000000000","SITE":"AFETR","SEMIMAJOR_AXIS":"6925.363"},{"CENTER_NAME":"EARTH","REF_FRAME":"TEME","CLASSIFICATION_TYPE":"U","EPHEMERIS_TYPE":"0","OBJECT_NAME":"STARLINK-2745","NORAD_CAT_ID":"48671","PERIOD":"95.592","MEAN_MOTION_DOT":"-0.00000687","INCLINATION":"53.0546","GP_ID":"191800307","RCS_SIZE":"LARGE","OBJECT_TYPE":"PAYLOAD","COUNTRY_CODE":"US","FILE":"3241542","BSTAR":"-0.00002718400000","LAUNCH_DATE":"2021-05-26","EPOCH":"2021-12-15T20:53:05.584128","PERIAPSIS":"545.778","RA_OF_ASC_NODE":"206.5784","TIME_SYSTEM":"UTC","MEAN_ANOMALY":"280.6527","TLE_LINE1":"1 48671U 21044AK  21349.87020352 -.00000687  00000-0 -27184-4 0  9992","MEAN_MOTION":"15.06394344","APOAPSIS":"548.684","ELEMENT_SET_NO":"999","TLE_LINE2":"2 48671  53.0546 206.5784 0002098  79.4698 280.6527 15.06394344 31008","OBJECT_ID":"2021-044AK","REV_AT_EPOCH":"3100","SEMIMAJOR_AXIS":"6925.366","SITE":"AFETR","MEAN_ELEMENT_THEORY":"SGP4","DECAY_DATE":null,"ECCENTRICITY":"0.00020980","MEAN_MOTION_DDOT":"0.0000000000000","ARG_OF_PERICENTER":"79.4698"},{"CENTER_NAME":"EARTH","REF_FRAME":"TEME","CLASSIFICATION_TYPE":"U","EPHEMERIS_TYPE":"0","OBJECT_NAME":"STARLINK-2705","NORAD_CAT_ID":"48672","PERIOD":"95.592","MEAN_MOTION_DOT":"0.00000987","INCLINATION":"53.0547","GP_ID":"191800906","RCS_SIZE":"LARGE","OBJECT_TYPE":"PAYLOAD","FILE":"3241542","BSTAR":"0.00008518500000","COUNTRY_CODE":"US","LAUNCH_DATE":"2021-05-26","EPOCH":"2021-12-15T22:23:19.724352","PERIAPSIS":"545.598","TIME_SYSTEM":"UTC","RA_OF_ASC_NODE":"206.2935","MEAN_ANOMALY":"282.1563","TLE_LINE1":"1 48672U 21044AL  21349.93286718  .00000987  00000-0  85185-4 0  9996","MEAN_MOTION":"15.06395085","APOAPSIS":"548.860","TLE_LINE2":"2 48672  53.0547 206.2935 0002355  77.9689 282.1563 15.06395085 31015","ELEMENT_SET_NO":"999","OBJECT_ID":"2021-044AL","REV_AT_EPOCH":"3101","SEMIMAJOR_AXIS":"6925.364","SITE":"AFETR","MEAN_ELEMENT_THEORY":"SGP4","ECCENTRICITY":"0.00023550","DECAY_DATE":null,"MEAN_MOTION_DDOT":"0.0000000000000","ARG_OF_PERICENTER":"77.9689"},{"MEAN_ELEMENT_THEORY":"SGP4","DECAY_DATE":null,"ECCENTRICITY":"0.00025910","MEAN_MOTION_DDOT":"0.0000000000000","ARG_OF_PERICENTER":"82.1614","SEMIMAJOR_AXIS":"6925.361","SITE":"AFETR","ELEMENT_SET_NO":"999","TLE_LINE2":"2 48673  53.0542 206.3076 0002591  82.1614 277.9669 15.06395843 31017","OBJECT_ID":"2021-044AM","REV_AT_EPOCH":"3101","PERIAPSIS":"545.432","RA_OF_ASC_NODE":"206.3076","TIME_SYSTEM":"UTC","TLE_LINE1":"1 48673U 21044AM  21349.92917992  .00001290  00000-0  10553-3 0  9995","MEAN_ANOMALY":"277.9669","MEAN_MOTION":"15.06395843","APOAPSIS":"549.021","RCS_SIZE":"LARGE","OBJECT_TYPE":"PAYLOAD","BSTAR":"0.00010553000000","FILE":"3241542","COUNTRY_CODE":"US","LAUNCH_DATE":"2021-05-26","EPOCH":"2021-12-15T22:18:01.145088","GP_ID":"191799507","CLASSIFICATION_TYPE":"U","EPHEMERIS_TYPE":"0","OBJECT_NAME":"STARLINK-2711","NORAD_CAT_ID":"48673","PERIOD":"95.592","MEAN_MOTION_DOT":"0.00001290","INCLINATION":"53.0542","CENTER_NAME":"EARTH","REF_FRAME":"TEME"},{"APOAPSIS":"548.859","MEAN_MOTION":"15.06398121","MEAN_ANOMALY":"283.9424","TLE_LINE1":"1 48674U 21044AN  21349.85913993  .00000835  00000-0  74961-4 0  9993","TIME_SYSTEM":"UTC","RA_OF_ASC_NODE":"206.6230","PERIAPSIS":"545.580","REV_AT_EPOCH":"3100","OBJECT_ID":"2021-044AN","ELEMENT_SET_NO":"999","TLE_LINE2":"2 48674  53.0543 206.6230 0002367  76.1828 283.9424 15.06398121 31002","SEMIMAJOR_AXIS":"6925.354","SITE":"AFETR","ARG_OF_PERICENTER":"76.1828","MEAN_MOTION_DDOT":"0.0000000000000","ECCENTRICITY":"0.00023670","DECAY_DATE":null,"MEAN_ELEMENT_THEORY":"SGP4","REF_FRAME":"TEME","CENTER_NAME":"EARTH","INCLINATION":"53.0543","PERIOD":"95.592","MEAN_MOTION_DOT":"0.00000835","NORAD_CAT_ID":"48674","OBJECT_NAME":"STARLINK-2712","EPHEMERIS_TYPE":"0","CLASSIFICATION_TYPE":"U","GP_ID":"191799707","EPOCH":"2021-12-15T20:37:09.689952","LAUNCH_DATE":"2021-05-26","FILE":"3241542","COUNTRY_CODE":"US","BSTAR":"0.00007496100000","OBJECT_TYPE":"PAYLOAD","RCS_SIZE":"LARGE"},{"ARG_OF_PERICENTER":"78.7532","MEAN_MOTION_DDOT":"0.0000000000000","MEAN_ELEMENT_THEORY":"SGP4","DECAY_DATE":null,"ECCENTRICITY":"0.00025540","SITE":"AFETR","SEMIMAJOR_AXIS":"6925.383","REV_AT_EPOCH":"3101","OBJECT_ID":"2021-044AP","ELEMENT_SET_NO":"999","TLE_LINE2":"2 48675  53.0555 206.3495 0002554  78.7532 281.3744 15.06388785 31017","APOAPSIS":"549.017","MEAN_ANOMALY":"281.3744","TLE_LINE1":"1 48675U 21044AP  21349.92181215  .00000803  00000-0  72828-4 0  9991","MEAN_MOTION":"15.06388785","RA_OF_ASC_NODE":"206.3495","TIME_SYSTEM":"UTC","PERIAPSIS":"545.479","LAUNCH_DATE":"2021-05-26","EPOCH":"2021-12-15T22:07:24.569760","BSTAR":"0.00007282800000","FILE":"3241542","COUNTRY_CODE":"US","RCS_SIZE":"LARGE","OBJECT_TYPE":"PAYLOAD","GP_ID":"191800707","INCLINATION":"53.0555","OBJECT_NAME":"STARLINK-2737","PERIOD":"95.593","MEAN_MOTION_DOT":"0.00000803","NORAD_CAT_ID":"48675","EPHEMERIS_TYPE":"0","CLASSIFICATION_TYPE":"U","REF_FRAME":"TEME","CENTER_NAME":"EARTH"},{"COUNTRY_CODE":"US","FILE":"3241542","BSTAR":"-0.00004374800000","LAUNCH_DATE":"2021-05-26","EPOCH":"2021-12-15T22:02:06.014688","RCS_SIZE":"LARGE","OBJECT_TYPE":"PAYLOAD","GP_ID":"191800508","OBJECT_NAME":"STARLINK-2746","MEAN_MOTION_DOT":"-0.00000933","PERIOD":"95.592","NORAD_CAT_ID":"48676","INCLINATION":"53.0549","CLASSIFICATION_TYPE":"U","EPHEMERIS_TYPE":"0","REF_FRAME":"TEME","CENTER_NAME":"EARTH","ARG_OF_PERICENTER":"74.9147","MEAN_ELEMENT_THEORY":"SGP4","DECAY_DATE":null,"ECCENTRICITY":"0.00023220","MEAN_MOTION_DDOT":"0.0000000000000","SEMIMAJOR_AXIS":"6925.365","SITE":"AFETR","REV_AT_EPOCH":"3101","ELEMENT_SET_NO":"999","TLE_LINE2":"2 48676  53.0549 206.3592 0002322  74.9147 285.2099 15.06394491 31019","OBJECT_ID":"2021-044AQ","TLE_LINE1":"1 48676U 21044AQ  21349.91812517 -.00000933  00000-0 -43748-4 0  9992","MEAN_ANOMALY":"285.2099","MEAN_MOTION":"15.06394491","APOAPSIS":"548.839","PERIAPSIS":"545.622","TIME_SYSTEM":"UTC","RA_OF_ASC_NODE":"206.3592"},{"CLASSIFICATION_TYPE":"U","EPHEMERIS_TYPE":"0","PERIOD":"95.593","NORAD_CAT_ID":"48677","MEAN_MOTION_DOT":"0.00000776","OBJECT_NAME":"STARLINK-2719","INCLINATION":"53.0546","CENTER_NAME":"EARTH","REF_FRAME":"TEME","OBJECT_TYPE":"PAYLOAD","RCS_SIZE":"LARGE","COUNTRY_CODE":"US","FILE":"3241542","BSTAR":"0.00007102500000","EPOCH":"2021-12-15T21:56:46.998240","LAUNCH_DATE":"2021-05-26","GP_ID":"191799907","ELEMENT_SET_NO":"999","TLE_LINE2":"2 48677  53.0546 206.3728 0002544  74.8898 285.2372 15.06392997 31019","OBJECT_ID":"2021-044AR","REV_AT_EPOCH":"3101","PERIAPSIS":"545.473","RA_OF_ASC_NODE":"206.3728","TIME_SYSTEM":"UTC","MEAN_MOTION":"15.06392997","TLE_LINE1":"1 48677U 21044AR  21349.91443285  .00000776  00000-0  71025-4 0  9997","MEAN_ANOMALY":"285.2372","APOAPSIS":"548.997","DECAY_DATE":null,"ECCENTRICITY":"0.00025440","MEAN_ELEMENT_THEORY":"SGP4","MEAN_MOTION_DDOT":"0.0000000000000","ARG_OF_PERICENTER":"74.8898","SEMIMAJOR_AXIS":"6925.370","SITE":"AFETR"},{"MEAN_ELEMENT_THEORY":"SGP4","ECCENTRICITY":"0.00023110","DECAY_DATE":null,"MEAN_MOTION_DDOT":"0.0000000000000","ARG_OF_PERICENTER":"73.2700","SEMIMAJOR_AXIS":"6925.355","SITE":"AFETR","TLE_LINE2":"2 48678  53.0553 206.3971 0002311  73.2700 286.8542 15.06397820 31011","ELEMENT_SET_NO":"999","OBJECT_ID":"2021-044AS","REV_AT_EPOCH":"3101","PERIAPSIS":"545.620","TIME_SYSTEM":"UTC","RA_OF_ASC_NODE":"206.3971","MEAN_ANOMALY":"286.8542","TLE_LINE1":"1 48678U 21044AS  21349.91074910 -.00000397  00000-0 -77384-5 0  9999","MEAN_MOTION":"15.06397820","APOAPSIS":"548.821","RCS_SIZE":"LARGE","OBJECT_TYPE":"PAYLOAD","FILE":"3241542","BSTAR":"-0.00000773840000","COUNTRY_CODE":"US","LAUNCH_DATE":"2021-05-26","EPOCH":"2021-12-15T21:51:28.722240","GP_ID":"191800107","CLASSIFICATION_TYPE":"U","EPHEMERIS_TYPE":"0","OBJECT_NAME":"STARLINK-2615","NORAD_CAT_ID":"48678","PERIOD":"95.592","MEAN_MOTION_DOT":"-0.00000397","INCLINATION":"53.0553","CENTER_NAME":"EARTH","REF_FRAME":"TEME"},{"LAUNCH_DATE":"2021-05-26","EPOCH":"2021-12-15T20:10:37.966080","BSTAR":"0.00010654000000","FILE":"3241542","COUNTRY_CODE":"US","RCS_SIZE":"LARGE","OBJECT_TYPE":"PAYLOAD","GP_ID":"191800308","INCLINATION":"53.0557","OBJECT_NAME":"STARLINK-2648","PERIOD":"95.592","NORAD_CAT_ID":"48679","MEAN_MOTION_DOT":"0.00001305","EPHEMERIS_TYPE":"0","CLASSIFICATION_TYPE":"U","REF_FRAME":"TEME","CENTER_NAME":"EARTH","ARG_OF_PERICENTER":"76.2228","MEAN_MOTION_DDOT":"0.0000000000000","MEAN_ELEMENT_THEORY":"SGP4","DECAY_DATE":null,"ECCENTRICITY":"0.00027310","SITE":"AFETR","SEMIMAJOR_AXIS":"6925.341","REV_AT_EPOCH":"3100","OBJECT_ID":"2021-044AT","ELEMENT_SET_NO":"999","TLE_LINE2":"2 48679  53.0557 206.7146 0002731  76.2228 283.9065 15.06402414 31001","APOAPSIS":"549.097","TLE_LINE1":"1 48679U 21044AT  21349.84071720  .00001305  00000-0  10654-3 0  9991","MEAN_ANOMALY":"283.9065","MEAN_MOTION":"15.06402414","RA_OF_ASC_NODE":"206.7146","TIME_SYSTEM":"UTC","PERIAPSIS":"545.315"}];
